{
  "norad_id": 66559,
  "name": "STARLINK-35419",
  "history": [
    {
      "epoch": "2026-03-28T19:32:35.767968",
      "apogee_km": 483.98178429321524,
      "perigee_km": 481.9303174710003,
      "latitude_deg": -10.980344489877286,
      "longitude_deg": -165.9269244801253,
      "semi_major_axis_km": 6861.0930508821075,
      "eccentricity": 0.0001495,
      "inclination_deg": 43.0024,
      "raan_deg": 239.1417,
      "arg_perigee_deg": 264.8247,
      "mean_anomaly_deg": 95.2434,
      "mean_motion_rev_day": 15.27611074
    }
  ]
}